ONEWEB-0267             
1 48985U 21060U   25351.50801605  .00000088  00000+0  19601-3 0  9999
2 48985  87.9043 264.9477 0001899  70.8543 289.2793 13.16591632215689
ONEWEB-0268             
1 48986U 21060V   25351.47635458  .00000024  00000+0  30220-4 0  9998
2 48986  87.9048 264.9627 0001753  74.4752 285.6572 13.16596411215947
ONEWEB-0269             
1 48987U 21060W   25351.45735523  .00000165  00000+0  39859-3 0  9993
2 48987  87.9036 264.9881 0001708  81.6896 278.4429 13.16592682215718
ONEWEB-0270             
1 48988U 21060X   25351.32277535 -.00000315  00000+0 -85793-3 0  9991
2 48988  87.9047 264.9950 0001867  61.6962 298.4357 13.16593546215730
ONEWEB-0271             
1 48989U 21060Y   25351.46211890  .00000172  00000+0  41730-3 0  9991
2 48989  87.9054 264.9562 0001872  68.5240 291.6091 13.16595987215752
ONEWEB-0272             
1 48990U 21060Z   25351.48427056  .00000044  00000+0  80268-4 0  9996
2 48990  87.9041 264.9670 0001970  73.9134 286.2213 13.16596986215702
ONEWEB-0273             
1 48991U 21060AA  25351.27843789  .00000151  00000+0  36202-3 0  9996
2 48991  87.9046 265.0037 0001747  67.9772 292.1544 13.16596970215650
ONEWEB-0274             
1 48992U 21060AB  25351.45577862  .00000139  00000+0  32945-3 0  9999
2 48992  87.9035 264.9906 0001991  79.6158 280.5198 13.16595769215719
